{
    "links": {
        "self": "http://www.neowsapp.com/rest/v1/neo/3781906?api_key=iIulBulltgU6a56xZRHN4H3l9WmuAYTsLGpBGhQ2"
    },
    "id": "3781906",
    "neo_reference_id": "3781906",
    "name": "(2017 SQ17)",
    "designation": "2017 SQ17",
    "nasa_jpl_url": "http://ssd.jpl.nasa.gov/sbdb.cgi?sstr=3781906",
    "absolute_magnitude_h": 23.9,
    "estimated_diameter": {
        "kilometers": {
            "estimated_diameter_min": 0.04411182,
            "estimated_diameter_max": 0.0986370281
        },
        "meters": {
            "estimated_diameter_min": 44.1118199997,
            "estimated_diameter_max": 98.6370281305
        },
        "miles": {
            "estimated_diameter_min": 0.0274098057,
            "estimated_diameter_max": 0.0612901888
        },
        "feet": {
            "estimated_diameter_min": 144.7238235278,
            "estimated_diameter_max": 323.6123073718
        }
    },
    "is_potentially_hazardous_asteroid": false,
    "close_approach_data": [
        {
            "close_approach_date": "2017-09-23",
            "close_approach_date_full": "2017-Sep-23 11:17",
            "epoch_date_close_approach": 1506165420000,
            "relative_velocity": {
                "kilometers_per_second": "12.7135048007",
                "kilometers_per_hour": "45768.61728265",
                "miles_per_hour": "28438.8388887666"
            },
            "miss_distance": {
                "astronomical": "0.1361230915",
                "lunar": "52.9518825935",
                "kilometers": "20363724.546215105",
                "miles": "12653431.685594249"
            },
            "orbiting_body": "Earth"
        }
    ],
    "orbital_data": {
        "orbit_id": "1",
        "orbit_determination_date": "2017-09-28 15:12:06",
        "first_observation_date": "2017-09-25",
        "last_observation_date": "2017-09-28",
        "data_arc_in_days": 3,
        "observations_used": 9,
        "orbit_uncertainty": "9",
        "minimum_orbit_intersection": ".127444",
        "jupiter_tisserand_invariant": "4.680",
        "epoch_osculation": "2458022.5",
        "eccentricity": ".1872494854955356",
        "semi_major_axis": "1.385933727083844",
        "inclination": "24.13565475431256",
        "ascending_node_longitude": "179.9220625551908",
        "orbital_period": "595.9531535453573",
        "perihelion_distance": "1.126418349756484",
        "perihelion_argument": "193.2574194164383",
        "aphelion_distance": "1.645449104411203",
        "perihelion_time": "2458031.164748547609",
        "mean_anomaly": "354.7658478546807",
        "mean_motion": ".6040743267458871",
        "equinox": "J2000",
        "orbit_class": {
            "orbit_class_type": "AMO",
            "orbit_class_description": "Near-Earth asteroid orbits similar to that of 1221 Amor",
            "orbit_class_range": "1.017 AU < q (perihelion) < 1.3 AU"
        }
    },
    "is_sentry_object": false
}